2025-313S               
1 67264U 25313S   26017.62464550  .00007302  00000+0  34032-3 0  9993
2 67264  97.4200  94.7501 0015835 172.5825 187.5647 15.20072077  3054
SITRO-TD-4              
1 67265U 25313T   26017.49164705  .00010805  00000+0  49953-3 0  9998
2 67265  97.4110  94.6161 0015744 168.8608 191.2979 15.20229669  3031
SITRO-AIS-65            
1 67266U 25313U   26017.49157600  .00010361  00000+0  47907-3 0  9999
2 67266  97.4138  94.6227 0015680 167.5814 192.5811 15.20237070  3033
2025-313V               
1 67267U 25313V   26017.49105166  .00012751  00000+0  58772-3 0  9997
2 67267  97.4120  94.6102 0014888 173.1539 186.9903 15.20304307  3030
ZORKY-2M 7              
1 67268U 25313W   26017.49189229  .00009940  00000+0  46039-3 0  9999
2 67268  97.4120  94.6075 0015849 168.3240 191.8366 15.20188392  3035
2025-313X               
1 67269U 25313X   26017.49056445  .00014312  00000+0  65731-3 0  9992
2 67269  97.4146  94.6258 0015630 166.9728 193.1915 15.20388570  3035
SITRO-TD-3              
1 67270U 25313Y   26017.49195724  .00011345  00000+0  52454-3 0  9999
2 67270  97.4120  94.6180 0015788 168.5275 191.6323 15.20213007  3030
2025-313Z               
1 67271U 25313Z   26017.62461298  .00004896  00000+0  22952-3 0  9990
2 67271  97.4114  94.7363 0015886 163.9104 196.2639 15.20034874  3053
2025-313AA              
1 67272U 25313AA  26017.55590462  .00012187  00000+0  56016-3 0  9999
2 67272  97.4118  94.6740 0015537 168.7094 191.4493 15.20401469  3042
2025-313AB              
1 67273U 25313AB  26017.62451174  .00003138  00000+0  14845-3 0  9994
2 67273  97.4131  94.7400 0014788 172.2001 187.9466 15.20013719  3055
2025-313AC              
1 67274U 25313AC  26017.49145795  .00007604  00000+0  35304-3 0  9994
2 67274  97.4108  94.6149 0015522 167.9088 192.2523 15.20192372  3036
2025-313AD              
1 67275U 25313AD  26017.49073717  .00008125  00000+0  37643-3 0  9996
2 67275  97.4082  94.6096 0014699 170.6682 189.4830 15.20255853  3037
