CCSDS_OMM_VERS = 2.0
CREATION_DATE  = 
ORIGINATOR     = 

OBJECT_NAME    = 2025-313S
OBJECT_ID      = 2025-313S
CENTER_NAME    = EARTH
REF_FRAME      = TEME
TIME_SYSTEM    = UTC
MEAN_ELEMENT_THEORY = SGP/SGP4

EPOCH          = 2026-01-17T14:59:29.371200
MEAN_MOTION    = 15.20072077
ECCENTRICITY   = .00158351
INCLINATION    = 97.4200
RA_OF_ASC_NODE = 94.7501
ARG_OF_PERICENTER = 172.5825
MEAN_ANOMALY   = 187.5647

EPHEMERIS_TYPE = 0
CLASSIFICATION_TYPE = U
NORAD_CAT_ID   = 67264
ELEMENT_SET_NO = 999
REV_AT_EPOCH   = 305
BSTAR          = .34031509E-3
MEAN_MOTION_DOT = .7302E-4
MEAN_MOTION_DDOT = 0

CCSDS_OMM_VERS = 2.0
CREATION_DATE  = 
ORIGINATOR     = 

OBJECT_NAME    = SITRO-TD-4
OBJECT_ID      = 2025-313T
CENTER_NAME    = EARTH
REF_FRAME      = TEME
TIME_SYSTEM    = UTC
MEAN_ELEMENT_THEORY = SGP/SGP4

EPOCH          = 2026-01-17T11:47:58.305120
MEAN_MOTION    = 15.20229669
ECCENTRICITY   = .00157443
INCLINATION    = 97.4110
RA_OF_ASC_NODE = 94.6161
ARG_OF_PERICENTER = 168.8608
MEAN_ANOMALY   = 191.2979

EPHEMERIS_TYPE = 0
CLASSIFICATION_TYPE = U
NORAD_CAT_ID   = 67265
ELEMENT_SET_NO = 999
REV_AT_EPOCH   = 303
BSTAR          = .49952896E-3
MEAN_MOTION_DOT = .10805E-3
MEAN_MOTION_DDOT = 0

CCSDS_OMM_VERS = 2.0
CREATION_DATE  = 
ORIGINATOR     = 

OBJECT_NAME    = SITRO-AIS-65
OBJECT_ID      = 2025-313U
CENTER_NAME    = EARTH
REF_FRAME      = TEME
TIME_SYSTEM    = UTC
MEAN_ELEMENT_THEORY = SGP/SGP4

EPOCH          = 2026-01-17T11:47:52.166400
MEAN_MOTION    = 15.20237070
ECCENTRICITY   = .00156803
INCLINATION    = 97.4138
RA_OF_ASC_NODE = 94.6227
ARG_OF_PERICENTER = 167.5814
MEAN_ANOMALY   = 192.5811

EPHEMERIS_TYPE = 0
CLASSIFICATION_TYPE = U
NORAD_CAT_ID   = 67266
ELEMENT_SET_NO = 999
REV_AT_EPOCH   = 303
BSTAR          = .47907018E-3
MEAN_MOTION_DOT = .10361E-3
MEAN_MOTION_DDOT = 0

CCSDS_OMM_VERS = 2.0
CREATION_DATE  = 
ORIGINATOR     = 

OBJECT_NAME    = 2025-313V
OBJECT_ID      = 2025-313V
CENTER_NAME    = EARTH
REF_FRAME      = TEME
TIME_SYSTEM    = UTC
MEAN_ELEMENT_THEORY = SGP/SGP4

EPOCH          = 2026-01-17T11:47:06.863424
MEAN_MOTION    = 15.20304307
ECCENTRICITY   = .00148888
INCLINATION    = 97.4120
RA_OF_ASC_NODE = 94.6102
ARG_OF_PERICENTER = 173.1539
MEAN_ANOMALY   = 186.9903

EPHEMERIS_TYPE = 0
CLASSIFICATION_TYPE = U
NORAD_CAT_ID   = 67267
ELEMENT_SET_NO = 999
REV_AT_EPOCH   = 303
BSTAR          = .58771682E-3
MEAN_MOTION_DOT = .12751E-3
MEAN_MOTION_DDOT = 0

CCSDS_OMM_VERS = 2.0
CREATION_DATE  = 
ORIGINATOR     = 

OBJECT_NAME    = ZORKY-2M 7
OBJECT_ID      = 2025-313W
CENTER_NAME    = EARTH
REF_FRAME      = TEME
TIME_SYSTEM    = UTC
MEAN_ELEMENT_THEORY = SGP/SGP4

EPOCH          = 2026-01-17T11:48:19.493856
MEAN_MOTION    = 15.20188392
ECCENTRICITY   = .00158493
INCLINATION    = 97.4120
RA_OF_ASC_NODE = 94.6075
ARG_OF_PERICENTER = 168.3240
MEAN_ANOMALY   = 191.8366

EPHEMERIS_TYPE = 0
CLASSIFICATION_TYPE = U
NORAD_CAT_ID   = 67268
ELEMENT_SET_NO = 999
REV_AT_EPOCH   = 303
BSTAR          = .46038619E-3
MEAN_MOTION_DOT = .994E-4
MEAN_MOTION_DDOT = 0

CCSDS_OMM_VERS = 2.0
CREATION_DATE  = 
ORIGINATOR     = 

OBJECT_NAME    = 2025-313X
OBJECT_ID      = 2025-313X
CENTER_NAME    = EARTH
REF_FRAME      = TEME
TIME_SYSTEM    = UTC
MEAN_ELEMENT_THEORY = SGP/SGP4

EPOCH          = 2026-01-17T11:46:24.768480
MEAN_MOTION    = 15.20388570
ECCENTRICITY   = .00156301
INCLINATION    = 97.4146
RA_OF_ASC_NODE = 94.6258
ARG_OF_PERICENTER = 166.9728
MEAN_ANOMALY   = 193.1915

EPHEMERIS_TYPE = 0
CLASSIFICATION_TYPE = U
NORAD_CAT_ID   = 67269
ELEMENT_SET_NO = 999
REV_AT_EPOCH   = 303
BSTAR          = .65731453E-3
MEAN_MOTION_DOT = .14312E-3
MEAN_MOTION_DDOT = 0

CCSDS_OMM_VERS = 2.0
CREATION_DATE  = 
ORIGINATOR     = 

OBJECT_NAME    = SITRO-TD-3
OBJECT_ID      = 2025-313Y
CENTER_NAME    = EARTH
REF_FRAME      = TEME
TIME_SYSTEM    = UTC
MEAN_ELEMENT_THEORY = SGP/SGP4

EPOCH          = 2026-01-17T11:48:25.105536
MEAN_MOTION    = 15.20213007
ECCENTRICITY   = .00157886
INCLINATION    = 97.4120
RA_OF_ASC_NODE = 94.6180
ARG_OF_PERICENTER = 168.5275
MEAN_ANOMALY   = 191.6323

EPHEMERIS_TYPE = 0
CLASSIFICATION_TYPE = U
NORAD_CAT_ID   = 67270
ELEMENT_SET_NO = 999
REV_AT_EPOCH   = 303
BSTAR          = .52453842E-3
MEAN_MOTION_DOT = .11345E-3
MEAN_MOTION_DDOT = 0

CCSDS_OMM_VERS = 2.0
CREATION_DATE  = 
ORIGINATOR     = 

OBJECT_NAME    = 2025-313Z
OBJECT_ID      = 2025-313Z
CENTER_NAME    = EARTH
REF_FRAME      = TEME
TIME_SYSTEM    = UTC
MEAN_ELEMENT_THEORY = SGP/SGP4

EPOCH          = 2026-01-17T14:59:26.561472
MEAN_MOTION    = 15.20034874
ECCENTRICITY   = .00158868
INCLINATION    = 97.4114
RA_OF_ASC_NODE = 94.7363
ARG_OF_PERICENTER = 163.9104
MEAN_ANOMALY   = 196.2639

EPHEMERIS_TYPE = 0
CLASSIFICATION_TYPE = U
NORAD_CAT_ID   = 67271
ELEMENT_SET_NO = 999
REV_AT_EPOCH   = 305
BSTAR          = .22952318E-3
MEAN_MOTION_DOT = .4896E-4
MEAN_MOTION_DDOT = 0

CCSDS_OMM_VERS = 2.0
CREATION_DATE  = 
ORIGINATOR     = 

OBJECT_NAME    = 2025-313AA
OBJECT_ID      = 2025-313AA
CENTER_NAME    = EARTH
REF_FRAME      = TEME
TIME_SYSTEM    = UTC
MEAN_ELEMENT_THEORY = SGP/SGP4

EPOCH          = 2026-01-17T13:20:30.159168
MEAN_MOTION    = 15.20401469
ECCENTRICITY   = .00155377
INCLINATION    = 97.4118
RA_OF_ASC_NODE = 94.6740
ARG_OF_PERICENTER = 168.7094
MEAN_ANOMALY   = 191.4493

EPHEMERIS_TYPE = 0
CLASSIFICATION_TYPE = U
NORAD_CAT_ID   = 67272
ELEMENT_SET_NO = 999
REV_AT_EPOCH   = 304
BSTAR          = .56015663E-3
MEAN_MOTION_DOT = .12187E-3
MEAN_MOTION_DDOT = 0

CCSDS_OMM_VERS = 2.0
CREATION_DATE  = 
ORIGINATOR     = 

OBJECT_NAME    = 2025-313AB
OBJECT_ID      = 2025-313AB
CENTER_NAME    = EARTH
REF_FRAME      = TEME
TIME_SYSTEM    = UTC
MEAN_ELEMENT_THEORY = SGP/SGP4

EPOCH          = 2026-01-17T14:59:17.814336
MEAN_MOTION    = 15.20013719
ECCENTRICITY   = .00147889
INCLINATION    = 97.4131
RA_OF_ASC_NODE = 94.7400
ARG_OF_PERICENTER = 172.2001
MEAN_ANOMALY   = 187.9466

EPHEMERIS_TYPE = 0
CLASSIFICATION_TYPE = U
NORAD_CAT_ID   = 67273
ELEMENT_SET_NO = 999
REV_AT_EPOCH   = 305
BSTAR          = .14845153E-3
MEAN_MOTION_DOT = .3138E-4
MEAN_MOTION_DDOT = 0

CCSDS_OMM_VERS = 2.0
CREATION_DATE  = 
ORIGINATOR     = 

OBJECT_NAME    = 2025-313AC
OBJECT_ID      = 2025-313AC
CENTER_NAME    = EARTH
REF_FRAME      = TEME
TIME_SYSTEM    = UTC
MEAN_ELEMENT_THEORY = SGP/SGP4

EPOCH          = 2026-01-17T11:47:41.966880
MEAN_MOTION    = 15.20192372
ECCENTRICITY   = .00155223
INCLINATION    = 97.4108
RA_OF_ASC_NODE = 94.6149
ARG_OF_PERICENTER = 167.9088
MEAN_ANOMALY   = 192.2523

EPHEMERIS_TYPE = 0
CLASSIFICATION_TYPE = U
NORAD_CAT_ID   = 67274
ELEMENT_SET_NO = 999
REV_AT_EPOCH   = 303
BSTAR          = .35304372E-3
MEAN_MOTION_DOT = .7604E-4
MEAN_MOTION_DDOT = 0

CCSDS_OMM_VERS = 2.0
CREATION_DATE  = 
ORIGINATOR     = 

OBJECT_NAME    = 2025-313AD
OBJECT_ID      = 2025-313AD
CENTER_NAME    = EARTH
REF_FRAME      = TEME
TIME_SYSTEM    = UTC
MEAN_ELEMENT_THEORY = SGP/SGP4

EPOCH          = 2026-01-17T11:46:39.691488
MEAN_MOTION    = 15.20255853
ECCENTRICITY   = .00146996
INCLINATION    = 97.4082
RA_OF_ASC_NODE = 94.6096
ARG_OF_PERICENTER = 170.6682
MEAN_ANOMALY   = 189.4830

EPHEMERIS_TYPE = 0
CLASSIFICATION_TYPE = U
NORAD_CAT_ID   = 67275
ELEMENT_SET_NO = 999
REV_AT_EPOCH   = 303
BSTAR          = .37643073E-3
MEAN_MOTION_DOT = .8125E-4
MEAN_MOTION_DDOT = 0

